ORBCOMM-X               
1 21576U 91050C   25144.59770075  .00000282  00000+0  96547-4 0  9998
2 21576  98.3443 211.6752 0002382 249.4247 110.6688 14.43244733778710
ORBCOMM FM01            
1 23545U 95017A   25144.50106719  .00004559  00000+0  48292-3 0  9996
2 23545  69.9611 133.1860 0004685 308.6731  51.4004 14.89802908609330
ORBCOMM FM02            
1 23546U 95017B   25144.52402683  .00005039  00000+0  52227-3 0  9995
2 23546  69.9628 152.5927 0005920 318.4776  41.5928 14.90603122608635
ORBCOMM FM08            
1 25112U 97084A   25144.34129803  .00001142  00000+0  35992-3 0  9993
2 25112  45.0129 122.3278 0004049 129.1351 230.9861 14.45737248437927
ORBCOMM FM10            
1 25113U 97084B   25144.24980360  .00001131  00000+0  35826-3 0  9990
2 25113  45.0140 125.1058 0002936  69.6358 290.4808 14.45525543613051
ORBCOMM FM11            
1 25114U 97084C   25144.38846860  .00001071  00000+0  34326-3 0  9999
2 25114  45.0127 125.0303 0003649  77.8768 282.2492 14.45279376438038
ORBCOMM FM12            
1 25115U 97084D   25144.42043082  .00001091  00000+0  34866-3 0  9991
2 25115  45.0135 124.6298 0002785  67.6804 292.4342 14.45300648437835
ORBCOMM FM09            
1 25116U 97084E   25144.31245050  .00001093  00000+0  35008-3 0  9990
2 25116  45.0138 126.0567 0004397  60.5129 299.6161 14.45177730438021
